CCSDS_OMM_VERS = 2.0
CREATION_DATE  = 
ORIGINATOR     = 

OBJECT_NAME    = ATLAS CENTAUR 2
OBJECT_ID      = 1963-047A
CENTER_NAME    = EARTH
REF_FRAME      = TEME
TIME_SYSTEM    = UTC
MEAN_ELEMENT_THEORY = SGP/SGP4

EPOCH          = 2025-11-10T19:56:26.987424
MEAN_MOTION    = 14.11447287
ECCENTRICITY   = .05500016
INCLINATION    = 30.3505
RA_OF_ASC_NODE = 139.6503
ARG_OF_PERICENTER = 113.1602
MEAN_ANOMALY   = 252.7895

EPHEMERIS_TYPE = 0
CLASSIFICATION_TYPE = U
NORAD_CAT_ID   = 694
ELEMENT_SET_NO = 999
REV_AT_EPOCH   = 11481
BSTAR          = .73324304E-3
MEAN_MOTION_DOT = .6027E-4
MEAN_MOTION_DDOT = 0

CCSDS_OMM_VERS = 2.0
CREATION_DATE  = 
ORIGINATOR     = 

OBJECT_NAME    = THOR AGENA D R/B
OBJECT_ID      = 1964-002A
CENTER_NAME    = EARTH
REF_FRAME      = TEME
TIME_SYSTEM    = UTC
MEAN_ELEMENT_THEORY = SGP/SGP4

EPOCH          = 2025-11-10T18:20:46.499712
MEAN_MOTION    = 14.33931452
ECCENTRICITY   = .00320035
INCLINATION    = 99.1222
RA_OF_ASC_NODE = 316.6530
ARG_OF_PERICENTER = 244.0554
MEAN_ANOMALY   = 115.7330

EPHEMERIS_TYPE = 0
CLASSIFICATION_TYPE = U
NORAD_CAT_ID   = 733
ELEMENT_SET_NO = 999
REV_AT_EPOCH   = 22125
BSTAR          = .16492592E-3
MEAN_MOTION_DOT = .413E-5
MEAN_MOTION_DDOT = 0

CCSDS_OMM_VERS = 2.0
CREATION_DATE  = 
ORIGINATOR     = 

OBJECT_NAME    = SL-3 R/B
OBJECT_ID      = 1964-053B
CENTER_NAME    = EARTH
REF_FRAME      = TEME
TIME_SYSTEM    = UTC
MEAN_ELEMENT_THEORY = SGP/SGP4

EPOCH          = 2025-11-10T17:57:05.445216
MEAN_MOTION    = 14.61222369
ECCENTRICITY   = .00708749
INCLINATION    = 65.0770
RA_OF_ASC_NODE = 319.9067
ARG_OF_PERICENTER = 331.1806
MEAN_ANOMALY   = 28.5386

EPHEMERIS_TYPE = 0
CLASSIFICATION_TYPE = U
NORAD_CAT_ID   = 877
ELEMENT_SET_NO = 999
REV_AT_EPOCH   = 24941
BSTAR          = .15713982E-3
MEAN_MOTION_DOT = .68E-5
MEAN_MOTION_DDOT = 0

CCSDS_OMM_VERS = 2.0
CREATION_DATE  = 
ORIGINATOR     = 

OBJECT_NAME    = SL-8 R/B
OBJECT_ID      = 1967-045B
CENTER_NAME    = EARTH
REF_FRAME      = TEME
TIME_SYSTEM    = UTC
MEAN_ELEMENT_THEORY = SGP/SGP4

EPOCH          = 2025-11-10T11:20:47.642496
MEAN_MOTION    = 14.45499379
ECCENTRICITY   = .00655338
INCLINATION    = 74.0113
RA_OF_ASC_NODE = 210.7108
ARG_OF_PERICENTER = 247.1388
MEAN_ANOMALY   = 112.2841

EPHEMERIS_TYPE = 0
CLASSIFICATION_TYPE = U
NORAD_CAT_ID   = 2802
ELEMENT_SET_NO = 999
REV_AT_EPOCH   = 7179
BSTAR          = .17443561E-3
MEAN_MOTION_DOT = .603E-5
MEAN_MOTION_DDOT = 0

CCSDS_OMM_VERS = 2.0
CREATION_DATE  = 
ORIGINATOR     = 

OBJECT_NAME    = SL-8 R/B
OBJECT_ID      = 1968-040B
CENTER_NAME    = EARTH
REF_FRAME      = TEME
TIME_SYSTEM    = UTC
MEAN_ELEMENT_THEORY = SGP/SGP4

EPOCH          = 2025-11-10T16:15:16.011360
MEAN_MOTION    = 15.02208099
ECCENTRICITY   = .00236404
INCLINATION    = 74.0308
RA_OF_ASC_NODE = 196.6805
ARG_OF_PERICENTER = 47.5215
MEAN_ANOMALY   = 312.7965

EPHEMERIS_TYPE = 0
CLASSIFICATION_TYPE = U
NORAD_CAT_ID   = 3230
ELEMENT_SET_NO = 999
REV_AT_EPOCH   = 7213
BSTAR          = .40204476E-3
MEAN_MOTION_DOT = .5292E-4
MEAN_MOTION_DDOT = 0

CCSDS_OMM_VERS = 2.0
CREATION_DATE  = 
ORIGINATOR     = 

OBJECT_NAME    = OAO 2
OBJECT_ID      = 1968-110A
CENTER_NAME    = EARTH
REF_FRAME      = TEME
TIME_SYSTEM    = UTC
MEAN_ELEMENT_THEORY = SGP/SGP4

EPOCH          = 2025-11-10T18:37:18.075360
MEAN_MOTION    = 14.47213549
ECCENTRICITY   = .0005968
INCLINATION    = 34.9927
RA_OF_ASC_NODE = 209.1014
ARG_OF_PERICENTER = 317.6410
MEAN_ANOMALY   = 42.3819

EPHEMERIS_TYPE = 0
CLASSIFICATION_TYPE = U
NORAD_CAT_ID   = 3597
ELEMENT_SET_NO = 999
REV_AT_EPOCH   = 186
BSTAR          = .13026176E-3
MEAN_MOTION_DOT = .463E-5
MEAN_MOTION_DDOT = 0

CCSDS_OMM_VERS = 2.0
CREATION_DATE  = 
ORIGINATOR     = 

OBJECT_NAME    = ISIS 1
OBJECT_ID      = 1969-009A
CENTER_NAME    = EARTH
REF_FRAME      = TEME
TIME_SYSTEM    = UTC
MEAN_ELEMENT_THEORY = SGP/SGP4

EPOCH          = 2025-11-10T20:15:09.930816
MEAN_MOTION    = 11.30336083
ECCENTRICITY   = .17075401
INCLINATION    = 88.4518
RA_OF_ASC_NODE = 168.2836
ARG_OF_PERICENTER = 329.1533
MEAN_ANOMALY   = 21.9151

EPHEMERIS_TYPE = 0
CLASSIFICATION_TYPE = U
NORAD_CAT_ID   = 3669
ELEMENT_SET_NO = 999
REV_AT_EPOCH   = 33510
BSTAR          = .18031909E-3
MEAN_MOTION_DOT = .253E-5
MEAN_MOTION_DDOT = 0

CCSDS_OMM_VERS = 2.0
CREATION_DATE  = 
ORIGINATOR     = 

OBJECT_NAME    = SERT 2
OBJECT_ID      = 1970-009A
CENTER_NAME    = EARTH
REF_FRAME      = TEME
TIME_SYSTEM    = UTC
MEAN_ELEMENT_THEORY = SGP/SGP4

EPOCH          = 2025-11-10T15:36:28.649376
MEAN_MOTION    = 13.58711342
ECCENTRICITY   = .00056199
INCLINATION    = 99.2595
RA_OF_ASC_NODE = 259.3493
ARG_OF_PERICENTER = 105.0958
MEAN_ANOMALY   = 68.0980

EPHEMERIS_TYPE = 0
CLASSIFICATION_TYPE = U
NORAD_CAT_ID   = 4327
ELEMENT_SET_NO = 999
REV_AT_EPOCH   = 76372
BSTAR          = .10079421E-3
MEAN_MOTION_DOT = .33E-6
MEAN_MOTION_DDOT = 0

CCSDS_OMM_VERS = 2.0
CREATION_DATE  = 
ORIGINATOR     = 

OBJECT_NAME    = SL-3 R/B
OBJECT_ID      = 1971-028B
CENTER_NAME    = EARTH
REF_FRAME      = TEME
TIME_SYSTEM    = UTC
MEAN_ELEMENT_THEORY = SGP/SGP4

EPOCH          = 2025-11-10T22:00:34.841088
MEAN_MOTION    = 15.52190080
ECCENTRICITY   = .00217585
INCLINATION    = 81.2401
RA_OF_ASC_NODE = 197.6770
ARG_OF_PERICENTER = 357.1077
MEAN_ANOMALY   = 3.0042

EPHEMERIS_TYPE = 0
CLASSIFICATION_TYPE = U
NORAD_CAT_ID   = 5118
ELEMENT_SET_NO = 999
REV_AT_EPOCH   = 97019
BSTAR          = .57614852E-3
MEAN_MOTION_DOT = .35371E-3
MEAN_MOTION_DDOT = 0

CCSDS_OMM_VERS = 2.0
CREATION_DATE  = 
ORIGINATOR     = 

OBJECT_NAME    = ASTEX 1
OBJECT_ID      = 1971-089A
CENTER_NAME    = EARTH
REF_FRAME      = TEME
TIME_SYSTEM    = UTC
MEAN_ELEMENT_THEORY = SGP/SGP4

EPOCH          = 2025-11-10T21:42:51.041952
MEAN_MOTION    = 14.50580080
ECCENTRICITY   = .00174751
INCLINATION    = 92.7121
RA_OF_ASC_NODE = 113.3240
ARG_OF_PERICENTER = 121.6774
MEAN_ANOMALY   = 238.6139

EPHEMERIS_TYPE = 0
CLASSIFICATION_TYPE = U
NORAD_CAT_ID   = 5560
ELEMENT_SET_NO = 999
REV_AT_EPOCH   = 84508
BSTAR          = .25235407E-3
MEAN_MOTION_DOT = .99E-5
MEAN_MOTION_DDOT = 0

CCSDS_OMM_VERS = 2.0
CREATION_DATE  = 
ORIGINATOR     = 

OBJECT_NAME    = SL-8 R/B
OBJECT_ID      = 1971-119B
CENTER_NAME    = EARTH
REF_FRAME      = TEME
TIME_SYSTEM    = UTC
MEAN_ELEMENT_THEORY = SGP/SGP4

EPOCH          = 2025-11-10T11:40:43.555872
MEAN_MOTION    = 14.34925987
ECCENTRICITY   = .05611913
INCLINATION    = 73.8893
RA_OF_ASC_NODE = 38.0505
ARG_OF_PERICENTER = 28.8919
MEAN_ANOMALY   = 334.2104

EPHEMERIS_TYPE = 0
CLASSIFICATION_TYPE = U
NORAD_CAT_ID   = 5730
ELEMENT_SET_NO = 999
REV_AT_EPOCH   = 63837
BSTAR          = .52830491E-3
MEAN_MOTION_DOT = .9961E-4
MEAN_MOTION_DDOT = 0

CCSDS_OMM_VERS = 2.0
CREATION_DATE  = 
ORIGINATOR     = 

OBJECT_NAME    = OAO 3 (COPERNICUS)
OBJECT_ID      = 1972-065A
CENTER_NAME    = EARTH
REF_FRAME      = TEME
TIME_SYSTEM    = UTC
MEAN_ELEMENT_THEORY = SGP/SGP4

EPOCH          = 2025-11-10T22:36:45.504576
MEAN_MOTION    = 14.59863415
ECCENTRICITY   = .00073503
INCLINATION    = 35.0057
RA_OF_ASC_NODE = 253.7994
ARG_OF_PERICENTER = 268.5370
MEAN_ANOMALY   = 147.4327

EPHEMERIS_TYPE = 0
CLASSIFICATION_TYPE = U
NORAD_CAT_ID   = 6153
ELEMENT_SET_NO = 999
REV_AT_EPOCH   = 82883
BSTAR          = .14589765E-3
MEAN_MOTION_DOT = .688E-5
MEAN_MOTION_DDOT = 0

