ATLAS CENTAUR 2         
1 00694U 63047A   25314.83086791  .00006027  00000+0  73324-3 0  9992
2 00694  30.3505 139.6503 0550001 113.1602 252.7895 14.11447287114811
THOR AGENA D R/B        
1 00733U 64002A   25314.76442708  .00000413  00000+0  16493-3 0  9991
2 00733  99.1222 316.6530 0032003 244.0554 115.7330 14.33931452221253
SL-3 R/B                
1 00877U 64053B   25314.74797969  .00000680  00000+0  15714-3 0  9997
2 00877  65.0770 319.9067 0070874 331.1806  28.5386 14.61222369249410
SL-8 R/B                
1 02802U 67045B   25314.47277364  .00000603  00000+0  17444-3 0  9990
2 02802  74.0113 210.7108 0065533 247.1388 112.2841 14.45499379 71792
SL-8 R/B                
1 03230U 68040B   25314.67726865  .00005292  00000+0  40204-3 0  9998
2 03230  74.0308 196.6805 0023640  47.5215 312.7965 15.02208099 72138
OAO 2                   
1 03597U 68110A   25314.77590365  .00000463  00000+0  13026-3 0  9994
2 03597  34.9927 209.1014 0005968 317.6410  42.3819 14.47213549  1869
ISIS 1                  
1 03669U 69009A   25314.84386494  .00000253  00000+0  18032-3 0  9995
2 03669  88.4518 168.2836 1707540 329.1533  21.9151 11.30336083335103
SERT 2                  
1 04327U 70009A   25314.65033159  .00000033  00000+0  10079-3 0  9994
2 04327  99.2595 259.3493 0005619 105.0958  68.0980 13.58711342763722
SL-3 R/B                
1 05118U 71028B   25314.91706992  .00035371  00000+0  57615-3 0  9996
2 05118  81.2401 197.6770 0021758 357.1077   3.0042 15.52190080970199
ASTEX 1                 
1 05560U 71089A   25314.90475743  .00000990  00000+0  25235-3 0  9992
2 05560  92.7121 113.3240 0017475 121.6774 238.6139 14.50580080845084
SL-8 R/B                
1 05730U 71119B   25314.48661523  .00009961  00000+0  52830-3 0  9999
2 05730  73.8893  38.0505 0561191  28.8919 334.2104 14.34925987638372
OAO 3 (COPERNICUS)      
1 06153U 72065A   25314.94219334  .00000688  00000+0  14590-3 0  9998
2 06153  35.0057 253.7994 0007350 268.5370 147.4327 14.59863415828835
